{
  "type": "FeatureCollection",
  "features": [
    {
      "type": "Feature",
      "properties": {
        "norad_id": 66427,
        "name": "STARLINK-35611",
        "group": "last-30-days",
        "lat": 42.482015854845535,
        "lon": 178.08572767186587,
        "alt_km": 409.3983888554567,
        "timestamp": "2025-12-03T22:42:31.475274+00:00",
        "meta_object_name": "STARLINK-35611",
        "meta_object_id": "2025-259F",
        "meta_epoch": "2025-12-03T12:00:02.998944",
        "meta_mean_motion": 15.50620159,
        "meta_eccentricity": 0.0001464,
        "meta_inclination": 43.0001,
        "meta_ra_of_asc_node": 101.3613,
        "meta_arg_of_pericenter": 279.99,
        "meta_mean_anomaly": 188.6806,
        "meta_ephemeris_type": 0,
        "meta_classification_type": "U",
        "meta_norad_cat_id": 66427,
        "meta_element_set_no": 999,
        "meta_rev_at_epoch": 479,
        "meta_bstar": -0.001916,
        "meta_mean_motion_dot": -0.00111323,
        "meta_mean_motion_ddot": 0,
        "tle_line1": "1 66427U 25259F   25337.50003471 -.00111323  00000+0 -19160-2 0  9999",
        "tle_line2": "2 66427  43.0001 101.3613 0001464 279.9900 188.6806 15.50620159  4792"
      },
      "geometry": {
        "type": "Point",
        "coordinates": [
          178.08572767186587,
          42.482015854845535
        ]
      }
    },
    {
      "type": "Feature",
      "properties": {
        "norad_id": 66428,
        "name": "STARLINK-35610",
        "group": "last-30-days",
        "lat": 42.69449480878406,
        "lon": -179.3355438734803,
        "alt_km": 409.5223907397731,
        "timestamp": "2025-12-03T22:42:31.475283+00:00",
        "meta_object_name": "STARLINK-35610",
        "meta_object_id": "2025-259G",
        "meta_epoch": "2025-12-03T12:00:02.998944",
        "meta_mean_motion": 15.50592649,
        "meta_eccentricity": 0.000162,
        "meta_inclination": 43.0001,
        "meta_ra_of_asc_node": 101.357,
        "meta_arg_of_pericenter": 268.2399,
        "meta_mean_anomaly": 202.3666,
        "meta_ephemeris_type": 0,
        "meta_classification_type": "U",
        "meta_norad_cat_id": 66428,
        "meta_element_set_no": 999,
        "meta_rev_at_epoch": 479,
        "meta_bstar": -0.0013728,
        "meta_mean_motion_dot": -0.00080097,
        "meta_mean_motion_ddot": 0,
        "tle_line1": "1 66428U 25259G   25337.50003471 -.00080097  00000+0 -13728-2 0  9997",
        "tle_line2": "2 66428  43.0001 101.3570 0001620 268.2399 202.3666 15.50592649  4792"
      },
      "geometry": {
        "type": "Point",
        "coordinates": [
          -179.3355438734803,
          42.69449480878406
        ]
      }
    },
    {
      "type": "Feature",
      "properties": {
        "norad_id": 66429,
        "name": "STARLINK-35533",
        "group": "last-30-days",
        "lat": 42.84925400422617,
        "lon": -176.72762069685774,
        "alt_km": 409.3690941057712,
        "timestamp": "2025-12-03T22:42:31.475292+00:00",
        "meta_object_name": "STARLINK-35533",
        "meta_object_id": "2025-259H",
        "meta_epoch": "2025-12-03T12:00:02.998944",
        "meta_mean_motion": 15.50617229,
        "meta_eccentricity": 0.0001451,
        "meta_inclination": 43,
        "meta_ra_of_asc_node": 101.3505,
        "meta_arg_of_pericenter": 277.5064,
        "meta_mean_anomaly": 195.0023,
        "meta_ephemeris_type": 0,
        "meta_classification_type": "U",
        "meta_norad_cat_id": 66429,
        "meta_element_set_no": 999,
        "meta_rev_at_epoch": 479,
        "meta_bstar": -0.0018712,
        "meta_mean_motion_dot": -0.00108755,
        "meta_mean_motion_ddot": 0,
        "tle_line1": "1 66429U 25259H   25337.50003471 -.00108755  00000+0 -18712-2 0  9998",
        "tle_line2": "2 66429  43.0000 101.3505 0001451 277.5064 195.0023 15.50617229  4791"
      },
      "geometry": {
        "type": "Point",
        "coordinates": [
          -176.72762069685774,
          42.84925400422617
        ]
      }
    },
    {
      "type": "Feature",
      "properties": {
        "norad_id": 66430,
        "name": "STARLINK-35470",
        "group": "last-30-days",
        "lat": 42.94397325930115,
        "lon": -174.1218002451227,
        "alt_km": 409.37605806388,
        "timestamp": "2025-12-03T22:42:31.475301+00:00",
        "meta_object_name": "STARLINK-35470",
        "meta_object_id": "2025-259J",
        "meta_epoch": "2025-12-03T12:00:02.998944",
        "meta_mean_motion": 15.50579934,
        "meta_eccentricity": 0.0001507,
        "meta_inclination": 43,
        "meta_ra_of_asc_node": 101.3472,
        "meta_arg_of_pericenter": 271.0177,
        "meta_mean_anomaly": 203.4247,
        "meta_ephemeris_type": 0,
        "meta_classification_type": "U",
        "meta_norad_cat_id": 66430,
        "meta_element_set_no": 999,
        "meta_rev_at_epoch": 479,
        "meta_bstar": -0.00092922,
        "meta_mean_motion_dot": -0.00054478,
        "meta_mean_motion_ddot": 0,
        "tle_line1": "1 66430U 25259J   25337.50003471 -.00054478  00000+0 -92922-3 0  9998",
        "tle_line2": "2 66430  43.0000 101.3472 0001507 271.0177 203.4247 15.50579934  4794"
      },
      "geometry": {
        "type": "Point",
        "coordinates": [
          -174.1218002451227,
          42.94397325930115
        ]
      }
    },
    {
      "type": "Feature",
      "properties": {
        "norad_id": 66431,
        "name": "STARLINK-35439",
        "group": "last-30-days",
        "lat": 42.97933254297086,
        "lon": -171.49669031513133,
        "alt_km": 409.3332198545022,
        "timestamp": "2025-12-03T22:42:31.475310+00:00",
        "meta_object_name": "STARLINK-35439",
        "meta_object_id": "2025-259K",
        "meta_epoch": "2025-12-03T12:00:02.998944",
        "meta_mean_motion": 15.50613538,
        "meta_eccentricity": 0.0001402,
        "meta_inclination": 43,
        "meta_ra_of_asc_node": 101.3408,
        "meta_arg_of_pericenter": 269.0185,
        "meta_mean_anomaly": 207.3276,
        "meta_ephemeris_type": 0,
        "meta_classification_type": "U",
        "meta_norad_cat_id": 66431,
        "meta_element_set_no": 999,
        "meta_rev_at_epoch": 479,
        "meta_bstar": -0.0017169,
        "meta_mean_motion_dot": -0.0009991,
        "meta_mean_motion_ddot": 0,
        "tle_line1": "1 66431U 25259K   25337.50003471 -.00099910  00000+0 -17169-2 0  9998",
        "tle_line2": "2 66431  43.0000 101.3408 0001402 269.0185 207.3276 15.50613538  4798"
      },
      "geometry": {
        "type": "Point",
        "coordinates": [
          -171.49669031513133,
          42.97933254297086
        ]
      }
    },
    {
      "type": "Feature",
      "properties": {
        "norad_id": 66432,
        "name": "STARLINK-35446",
        "group": "last-30-days",
        "lat": 42.95748489450022,
        "lon": -169.0183023552056,
        "alt_km": 409.3454756141073,
        "timestamp": "2025-12-03T22:42:31.475322+00:00",
        "meta_object_name": "STARLINK-35446",
        "meta_object_id": "2025-259L",
        "meta_epoch": "2025-12-03T12:00:02.998944",
        "meta_mean_motion": 15.50484405,
        "meta_eccentricity": 0.0001598,
        "meta_inclination": 43.0001,
        "meta_ra_of_asc_node": 101.335,
        "meta_arg_of_pericenter": 288.7113,
        "meta_mean_anomaly": 189.538,
        "meta_ephemeris_type": 0,
        "meta_classification_type": "U",
        "meta_norad_cat_id": 66432,
        "meta_element_set_no": 999,
        "meta_rev_at_epoch": 479,
        "meta_bstar": 0.00099883,
        "meta_mean_motion_dot": 0.00058497,
        "meta_mean_motion_ddot": 0,
        "tle_line1": "1 66432U 25259L   25337.50003471  .00058497  00000+0  99883-3 0  9996",
        "tle_line2": "2 66432  43.0001 101.3350 0001598 288.7113 189.5380 15.50484405  4797"
      },
      "geometry": {
        "type": "Point",
        "coordinates": [
          -169.0183023552056,
          42.95748489450022
        ]
      }
    },
    {
      "type": "Feature",
      "properties": {
        "norad_id": 66433,
        "name": "STARLINK-35457",
        "group": "last-30-days",
        "lat": 42.87025610482331,
        "lon": -166.2720575617604,
        "alt_km": 409.3875844344302,
        "timestamp": "2025-12-03T22:42:31.475331+00:00",
        "meta_object_name": "STARLINK-35457",
        "meta_object_id": "2025-259M",
        "meta_epoch": "2025-12-03T12:00:02.998944",
        "meta_mean_motion": 15.50577136,
        "meta_eccentricity": 0.0001526,
        "meta_inclination": 42.9999,
        "meta_ra_of_asc_node": 101.3321,
        "meta_arg_of_pericenter": 280.0064,
        "meta_mean_anomaly": 200.1872,
        "meta_ephemeris_type": 0,
        "meta_classification_type": "U",
        "meta_norad_cat_id": 66433,
        "meta_element_set_no": 999,
        "meta_rev_at_epoch": 479,
        "meta_bstar": -0.00085045,
        "meta_mean_motion_dot": -0.00049913,
        "meta_mean_motion_ddot": 0,
        "tle_line1": "1 66433U 25259M   25337.50003471 -.00049913  00000+0 -85045-3 0  9997",
        "tle_line2": "2 66433  42.9999 101.3321 0001526 280.0064 200.1872 15.50577136  4791"
      },
      "geometry": {
        "type": "Point",
        "coordinates": [
          -166.2720575617604,
          42.87025610482331
        ]
      }
    }
  ]
}